{
  "type": "FeatureCollection",
  "features": [
    {
      "type": "Feature",
      "properties": {
        "norad_id": 44333,
        "name": "AT&T T-16",
        "group": "intelsat",
        "lat": 0.003854815287120006,
        "lon": -159.14459893505915,
        "alt_km": 35785.47657334148,
        "timestamp": "2025-12-09T14:52:25.833993+00:00",
        "meta_object_name": "AT&T T-16",
        "meta_object_id": "2019-034A",
        "meta_epoch": "2025-12-09T07:00:23.750784",
        "meta_mean_motion": 1.0026828,
        "meta_eccentricity": 5.427e-05,
        "meta_inclination": 0.0233,
        "meta_ra_of_asc_node": 61.767,
        "meta_arg_of_pericenter": 93.6898,
        "meta_mean_anomaly": 287.0698,
        "meta_ephemeris_type": 0,
        "meta_classification_type": "U",
        "meta_norad_cat_id": 44333,
        "meta_element_set_no": 999,
        "meta_rev_at_epoch": 2372,
        "meta_bstar": 0,
        "meta_mean_motion_dot": -1.13e-06,
        "meta_mean_motion_ddot": 0,
        "tle_line1": "1 44333U 19034A   25343.29194156 -.00000113  00000+0  00000+0 0  9992",
        "tle_line2": "2 44333   0.0233  61.7670 0000542  93.6898 287.0698  1.00268280 23729"
      },
      "geometry": {
        "type": "Point",
        "coordinates": [
          -159.14459893505915,
          0.003854815287120006
        ]
      }
    },
    {
      "type": "Feature",
      "properties": {
        "norad_id": 44476,
        "name": "INTELSAT 39 (IS-39)",
        "group": "intelsat",
        "lat": 0.020929383338161228,
        "lon": 3.658295184429779,
        "alt_km": 35789.74702087674,
        "timestamp": "2025-12-09T14:52:25.834005+00:00",
        "meta_object_name": "INTELSAT 39 (IS-39)",
        "meta_object_id": "2019-049B",
        "meta_epoch": "2025-12-09T05:18:26.589312",
        "meta_mean_motion": 1.00271128,
        "meta_eccentricity": 9.613e-05,
        "meta_inclination": 0.0158,
        "meta_ra_of_asc_node": 314.445,
        "meta_arg_of_pericenter": 199.6655,
        "meta_mean_anomaly": 65.6677,
        "meta_ephemeris_type": 0,
        "meta_classification_type": "U",
        "meta_norad_cat_id": 44476,
        "meta_element_set_no": 999,
        "meta_rev_at_epoch": 2322,
        "meta_bstar": 0,
        "meta_mean_motion_dot": 3.6e-07,
        "meta_mean_motion_ddot": 0,
        "tle_line1": "1 44476U 19049B   25343.22114108  .00000036  00000+0  00000+0 0  9991",
        "tle_line2": "2 44476   0.0158 314.4450 0000961 199.6655  65.6677  1.00271128 23227"
      },
      "geometry": {
        "type": "Point",
        "coordinates": [
          3.658295184429779,
          0.020929383338161228
        ]
      }
    },
    {
      "type": "Feature",
      "properties": {
        "norad_id": 46114,
        "name": "GALAXY 30 (G-30)",
        "group": "intelsat",
        "lat": -0.0009161383537860375,
        "lon": 176.68081551883876,
        "alt_km": 35784.534132966306,
        "timestamp": "2025-12-09T14:52:25.834016+00:00",
        "meta_object_name": "GALAXY 30 (G-30)",
        "meta_object_id": "2020-056C",
        "meta_epoch": "2025-12-09T07:14:11.466240",
        "meta_mean_motion": 1.00271399,
        "meta_eccentricity": 0.00023904,
        "meta_inclination": 0.017,
        "meta_ra_of_asc_node": 2.7395,
        "meta_arg_of_pericenter": 254.6208,
        "meta_mean_anomaly": 164.4778,
        "meta_ephemeris_type": 0,
        "meta_classification_type": "U",
        "meta_norad_cat_id": 46114,
        "meta_element_set_no": 999,
        "meta_rev_at_epoch": 1938,
        "meta_bstar": 0,
        "meta_mean_motion_dot": 3.9e-07,
        "meta_mean_motion_ddot": 0,
        "tle_line1": "1 46114U 20056C   25343.30152160  .00000039  00000+0  00000+0 0  9994",
        "tle_line2": "2 46114   0.0170   2.7395 0002390 254.6208 164.4778  1.00271399 19383"
      },
      "geometry": {
        "type": "Point",
        "coordinates": [
          176.68081551883876,
          -0.0009161383537860375
        ]
      }
    },
    {
      "type": "Feature",
      "properties": {
        "norad_id": 54026,
        "name": "GALAXY 33 (G-33)",
        "group": "intelsat",
        "lat": -0.01418331579317652,
        "lon": 168.6900153730841,
        "alt_km": 35784.50565672755,
        "timestamp": "2025-12-09T14:52:25.834028+00:00",
        "meta_object_name": "GALAXY 33 (G-33)",
        "meta_object_id": "2022-128A",
        "meta_epoch": "2025-12-09T07:10:20.298720",
        "meta_mean_motion": 1.00272119,
        "meta_eccentricity": 0.00022391,
        "meta_inclination": 0.0139,
        "meta_ra_of_asc_node": 305.716,
        "meta_arg_of_pericenter": 304.0516,
        "meta_mean_anomaly": 163.1114,
        "meta_ephemeris_type": 0,
        "meta_classification_type": "U",
        "meta_norad_cat_id": 54026,
        "meta_element_set_no": 999,
        "meta_rev_at_epoch": 1183,
        "meta_bstar": 0,
        "meta_mean_motion_dot": 8.1e-07,
        "meta_mean_motion_ddot": 0,
        "tle_line1": "1 54026U 22128A   25343.29884605  .00000081  00000+0  00000+0 0  9998",
        "tle_line2": "2 54026   0.0139 305.7160 0002239 304.0516 163.1114  1.00272119 11832"
      },
      "geometry": {
        "type": "Point",
        "coordinates": [
          168.6900153730841,
          -0.01418331579317652
        ]
      }
    },
    {
      "type": "Feature",
      "properties": {
        "norad_id": 54027,
        "name": "GALAXY 34 (G-34)",
        "group": "intelsat",
        "lat": -0.017923174652333805,
        "lon": 172.76438433842162,
        "alt_km": 35785.0089800763,
        "timestamp": "2025-12-09T14:52:25.834040+00:00",
        "meta_object_name": "GALAXY 34 (G-34)",
        "meta_object_id": "2022-128B",
        "meta_epoch": "2025-12-09T06:59:44.413728",
        "meta_mean_motion": 1.00270481,
        "meta_eccentricity": 0.00013542,
        "meta_inclination": 0.0253,
        "meta_ra_of_asc_node": 322.9124,
        "meta_arg_of_pericenter": 285.4458,
        "meta_mean_anomaly": 165.93,
        "meta_ephemeris_type": 0,
        "meta_classification_type": "U",
        "meta_norad_cat_id": 54027,
        "meta_element_set_no": 999,
        "meta_rev_at_epoch": 1200,
        "meta_bstar": 0,
        "meta_mean_motion_dot": 0,
        "meta_mean_motion_ddot": 0,
        "tle_line1": "1 54027U 22128B   25343.29148627  .00000000  00000+0  00000+0 0  9997",
        "tle_line2": "2 54027   0.0253 322.9124 0001354 285.4458 165.9300  1.00270481 12002"
      },
      "geometry": {
        "type": "Point",
        "coordinates": [
          172.76438433842162,
          -0.017923174652333805
        ]
      }
    },
    {
      "type": "Feature",
      "properties": {
        "norad_id": 54243,
        "name": "GALAXY 31 (G-31)",
        "group": "intelsat",
        "lat": -0.017880535754221306,
        "lon": -179.30573246456194,
        "alt_km": 35785.99007753093,
        "timestamp": "2025-12-09T14:52:25.834051+00:00",
        "meta_object_name": "GALAXY 31 (G-31)",
        "meta_object_id": "2022-153A",
        "meta_epoch": "2025-12-09T07:18:26.720352",
        "meta_mean_motion": 1.00271863,
        "meta_eccentricity": 0.00019124,
        "meta_inclination": 0.0194,
        "meta_ra_of_asc_node": 256.9706,
        "meta_arg_of_pericenter": 13.4115,
        "meta_mean_anomaly": 156.5303,
        "meta_ephemeris_type": 0,
        "meta_classification_type": "U",
        "meta_norad_cat_id": 54243,
        "meta_element_set_no": 999,
        "meta_rev_at_epoch": 522,
        "meta_bstar": 0,
        "meta_mean_motion_dot": 1.5e-07,
        "meta_mean_motion_ddot": 0,
        "tle_line1": "1 54243U 22153A   25343.30447593  .00000015  00000+0  00000+0 0  9997",
        "tle_line2": "2 54243   0.0194 256.9706 0001912  13.4115 156.5303  1.00271863  5227"
      },
      "geometry": {
        "type": "Point",
        "coordinates": [
          -179.30573246456194,
          -0.017880535754221306
        ]
      }
    },
    {
      "type": "Feature",
      "properties": {
        "norad_id": 54244,
        "name": "GALAXY 32 (G-32)",
        "group": "intelsat",
        "lat": -0.02133160575890617,
        "lon": -149.32278706149913,
        "alt_km": 35788.04914716996,
        "timestamp": "2025-12-09T14:52:25.834063+00:00",
        "meta_object_name": "GALAXY 32 (G-32)",
        "meta_object_id": "2022-153B",
        "meta_epoch": "2025-12-09T07:06:25.822080",
        "meta_mean_motion": 1.00270514,
        "meta_eccentricity": 0.00027293,
        "meta_inclination": 0.008,
        "meta_ra_of_asc_node": 342.0626,
        "meta_arg_of_pericenter": 326.8107,
        "meta_mean_anomaly": 145.0207,
        "meta_ephemeris_type": 0,
        "meta_classification_type": "U",
        "meta_norad_cat_id": 54244,
        "meta_element_set_no": 999,
        "meta_rev_at_epoch": 1124,
        "meta_bstar": 0,
        "meta_mean_motion_dot": -1.72e-06,
        "meta_mean_motion_ddot": 0,
        "tle_line1": "1 54244U 22153B   25343.29613220 -.00000172  00000+0  00000+0 0  9993",
        "tle_line2": "2 54244   0.0080 342.0626 0002729 326.8107 145.0207  1.00270514 11246"
      },
      "geometry": {
        "type": "Point",
        "coordinates": [
          -149.32278706149913,
          -0.02133160575890617
        ]
      }
    }
  ]
}